NORAD_CAT_ID,OBJECT_NAME,OBJECT_TYPE,EPOCH,MEAN_MOTION,ECCENTRICITY,INCLINATION,RA_OF_ASC_NODE,ARG_OF_PERICENTER,MEAN_ANOMALY,BSTAR,MEAN_MOTION_DOT,MEAN_MOTION_DDOT,TLE_LINE0,TLE_LINE1,TLE_LINE2,SEMIMAJOR_AXIS,PERIOD,APOGEE,PERIGEE,DECAYED
50158.0,STARLINK-3309,PAYLOAD,2024-03-12 23:30:08,15.08838383,0.0001456,53.2166,281.4617,80.454,279.6617,1.0053e-05,-1.28e-06,0.0,0 STARLINK-3309,1 50158U 21125C   24072.97926094 -.00000128  00000-0  10053-4 0  9996,2 50158  53.2166 281.4617 0001456  80.4540 279.6617 15.08838383123663,6917.885,95.438,540.758,538.743,0.0
50158.0,STARLINK-3309,PAYLOAD,2024-03-13 07:27:03,15.08839315,0.0001492,53.217,279.9748,83.1012,277.015,4.5508e-05,4.36e-06,0.0,0 STARLINK-3309,1 50158U 21125C   24073.31045943  .00000436  00000-0  45508-4 0  9994,2 50158  53.2170 279.9748 0001492  83.1012 277.0150 15.08839315126864,6917.882,95.438,540.78,538.715,0.0
50158.0,STARLINK-3309,PAYLOAD,2024-03-14 13:39:23,15.08835686,0.0001609,53.2178,274.3208,107.0079,253.1089,6.3756e-06,-1.87e-06,0.0,0 STARLINK-3309,1 50158U 21125C   24074.56902247 -.00000187  00000-0  63756-5 0  9991,2 50158  53.2178 274.3208 0001609 107.0079 253.1089 15.08835686123906,6917.894,95.438,540.872,538.645,0.0
50158.0,STARLINK-3309,PAYLOAD,2024-03-14 18:25:32,15.08835956,0.00016,53.2177,273.4287,106.9294,253.1874,9.1259e-06,-1.43e-06,0.0,0 STARLINK-3309,1 50158U 21125C   24074.76774262 -.00000143  00000-0  91259-5 0  9998,2 50158  53.2177 273.4287 0001600 106.9294 253.1874 15.08835956127085,6917.893,95.438,540.865,538.651,0.0
50158.0,STARLINK-3309,PAYLOAD,2024-03-15 13:30:10,15.08837695,0.0001557,53.2175,269.8635,86.0061,274.1109,1.2344e-06,-2.68e-06,0.0,0 STARLINK-3309,1 50158U 21125C   24075.56262408 -.00000268  00000-0  12344-5 0  9997,2 50158  53.2175 269.8635 0001557  86.0061 274.1109 15.08837695127200,6917.887,95.438,540.83,538.675,0.0
50158.0,STARLINK-3309,PAYLOAD,2024-03-16 11:45:34,15.08837159,0.0001496,53.2173,265.7002,86.661,273.4553,9.4626e-06,-1.37e-06,0.0,0 STARLINK-3309,1 50158U 21125C   24076.48998638 -.00000137  00000-0  94626-5 0  9998,2 50158  53.2173 265.7002 0001496  86.6610 273.4553 15.08837159124194,6917.889,95.438,540.789,538.719,0.0
50158.0,STARLINK-3309,PAYLOAD,2024-03-16 18:07:07,15.08834871,0.0001371,53.2163,264.5087,105.0739,255.0405,3.2887e-05,2.35e-06,0.0,0 STARLINK-3309,1 50158U 21125C   24076.75494785  .00000235  00000-0  32887-4 0  9990,2 50158  53.2163 264.5087 0001371 105.0739 255.0405 15.08834871127387,6917.896,95.438,540.71,538.813,0.0
50158.0,STARLINK-3309,PAYLOAD,2024-03-17 19:33:17,15.08840587,0.0001286,53.216,259.7507,88.9743,271.1396,6.6418e-05,7.69e-06,0.0,0 STARLINK-3309,1 50158U 21125C   24077.81478591  .00000769  00000-0  66418-4 0  9994,2 50158  53.2160 259.7507 0001286  88.9743 271.1396 15.08840587124393,6917.879,95.438,540.633,538.854,0.0
50158.0,STARLINK-3309,PAYLOAD,2024-03-17 21:08:40,15.08840844,0.0001288,53.216,259.4534,87.222,272.892,6.7749e-05,7.91e-06,0.0,0 STARLINK-3309,1 50158U 21125C   24077.88102580  .00000791  00000-0  67749-4 0  9996,2 50158  53.2160 259.4534 0001288  87.2220 272.8920 15.08840844127552,6917.878,95.438,540.634,538.852,0.0
50158.0,STARLINK-3309,PAYLOAD,2024-03-18 20:59:28,15.08836453,0.0001341,53.2164,254.9933,86.8803,273.2343,3.1542e-05,2.14e-06,0.0,0 STARLINK-3309,1 50158U 21125C   24078.87463097  .00000214  00000-0  31542-4 0  9991,2 50158  53.2164 254.9933 0001341  86.8803 273.2343 15.08836453127703,6917.891,95.438,540.684,538.829,0.0
50158.0,STARLINK-3309,PAYLOAD,2024-03-19 11:17:56,15.08843624,0.0001537,53.216,252.3186,75.8528,284.2634,4.6975e-05,4.6e-06,0.0,0 STARLINK-3309,1 50158U 21125C   24079.47078731  .00000460  00000-0  46975-4 0  9994,2 50158  53.2160 252.3186 0001537  75.8528 284.2634 15.08843624127792,6917.869,95.437,540.798,538.671,0.0
50158.0,STARLINK-3309,PAYLOAD,2024-03-19 17:39:28,15.08846348,0.0001562,53.2161,251.1306,71.7896,288.3266,6.7006e-05,7.79e-06,0.0,0 STARLINK-3309,1 50158U 21125C   24079.73574433  .00000779  00000-0  67006-4 0  9994,2 50158  53.2161 251.1306 0001562  71.7896 288.3266 15.08846348124682,6917.861,95.437,540.807,538.645,0.0
50158.0,STARLINK-3309,PAYLOAD,2024-03-20 14:19:29,15.0884275,0.000115,53.2172,247.2655,73.4553,286.6565,1.8653e-05,9e-08,0.0,0 STARLINK-3309,1 50158U 21125C   24080.59686726  .00000009  00000-0  18653-4 0  9999,2 50158  53.2172 247.2655 0001150  73.4553 286.6565 15.08842750127969,6917.872,95.437,540.533,538.941,0.0
50158.0,STARLINK-3309,PAYLOAD,2024-03-20 17:30:15,15.08840068,0.0001101,53.2159,246.6693,91.9659,268.1459,4.4099e-06,-2.18e-06,0.0,0 STARLINK-3309,1 50158U 21125C   24080.72934819 -.00000218  00000-0  44099-5 0  9990,2 50158  53.2159 246.6693 0001101  91.9659 268.1459 15.08840068124837,6917.88,95.438,540.507,538.984,0.0
50158.0,STARLINK-3309,PAYLOAD,2024-03-21 14:10:16,15.0883826,0.0001218,53.2165,242.8047,86.3273,273.7858,-1.658e-05,-5.52e-06,0.0,0 STARLINK-3309,1 50158U 21125C   24081.59047097 -.00000552  00000-0 -16580-4 0  9994,2 50158  53.2165 242.8047 0001218  86.3273 273.7858 15.08838260128115,6917.886,95.438,540.593,538.908,0.0
50158.0,STARLINK-3309,PAYLOAD,2024-03-21 17:21:02,15.08841165,0.0001313,53.2167,242.2097,85.8083,274.3059,5.0177e-06,-2.08e-06,0.0,0 STARLINK-3309,1 50158U 21125C   24081.72294863 -.00000208  00000-0  50177-5 0  9992,2 50158  53.2167 242.2097 0001313  85.8083 274.3059 15.08841165128135,6917.877,95.437,540.65,538.834,0.0
50158.0,STARLINK-3309,PAYLOAD,2024-03-22 10:50:17,15.08834201,0.0001344,53.2171,238.9374,96.2876,263.8269,7.5209e-05,9.09e-06,0.0,0 STARLINK-3309,1 50158U 21125C   24082.45159021  .00000909  00000-0  75209-4 0  9998,2 50158  53.2171 238.9374 0001344  96.2876 263.8269 15.08834201125091,6917.898,95.438,540.693,538.833,0.0
50158.0,STARLINK-3309,PAYLOAD,2024-03-22 14:01:04,15.088295,0.0001341,53.2174,238.3403,102.596,257.5183,3.749e-05,3.09e-06,0.0,0 STARLINK-3309,1 50158U 21125C   24082.58407439  .00000309  00000-0  37490-4 0  9995,2 50158  53.2174 238.3403 0001341 102.5960 257.5183 15.08829500128266,6917.912,95.438,540.705,538.85,0.0
50158.0,STARLINK-3309,PAYLOAD,2024-03-22 17:11:50,15.08828833,0.0001328,53.2174,237.7457,103.7695,256.3445,2.8688e-05,1.69e-06,0.0,0 STARLINK-3309,1 50158U 21125C   24082.71655583  .00000169  00000-0  28688-4 0  9998,2 50158  53.2174 237.7457 0001328 103.7695 256.3445 15.08828833125130,6917.915,95.438,540.698,538.861,0.0
50158.0,STARLINK-3309,PAYLOAD,2024-03-23 17:02:37,15.08838917,0.0001355,53.2177,233.2859,98.4505,261.6641,3.7316e-05,3.06e-06,0.0,0 STARLINK-3309,1 50158U 21125C   24083.71015459  .00000306  00000-0  37316-4 0  9992,2 50158  53.2177 233.2859 0001355  98.4505 261.6641 15.08838917125287,6917.884,95.438,540.686,538.811,0.0
50158.0,STARLINK-3309,PAYLOAD,2024-03-24 08:56:26,15.08860866,0.0001298,53.2177,230.3128,96.2839,263.8301,0.00029701,4.445e-05,0.0,0 STARLINK-3309,1 50158U 21125C   24084.37252561  .00004445  00000-0  29701-3 0  9998,2 50158  53.2177 230.3128 0001298  96.2839 263.8301 15.08860866125382,6917.817,95.436,540.58,538.784,0.0
50158.0,STARLINK-3309,PAYLOAD,2024-03-24 13:42:36,15.08854344,9.15e-05,53.2165,229.4087,119.5801,240.5282,0.00019628,2.839e-05,0.0,0 STARLINK-3309,1 50158U 21125C   24084.57125222  .00002839  00000-0  19628-3 0  9995,2 50158  53.2165 229.4087 0000915 119.5801 240.5282 15.08854344128562,6917.837,95.437,540.335,539.069,0.0
50158.0,STARLINK-3309,PAYLOAD,2024-03-24 15:18:01,15.08827259,0.0001509,53.2175,229.124,133.1378,226.9741,-3.374e-06,-3.42e-06,0.0,0 STARLINK-3309,1 50158U 21125C   24084.63751287 -.00000342  00000-0 -33740-5 0  9990,2 50158  53.2175 229.1240 0001509 133.1378 226.9741 15.08827259125427,6917.919,95.438,540.828,538.74,0.0
50158.0,STARLINK-3309,PAYLOAD,2024-03-25 18:19:36,15.08824631,0.0001519,53.2177,224.0658,85.0802,275.0364,-0.00010982,-2.035e-05,0.0,0 STARLINK-3309,1 50158U 21125C   24085.76361426 -.00002035  00000-0 -10982-3 0  9999,2 50158  53.2177 224.0658 0001519  85.0802 275.0364 15.08824631125599,6917.927,95.439,540.843,538.742,0.0
50158.0,STARLINK-3309,PAYLOAD,2024-03-26 13:24:12,15.088296,0.0001418,53.2178,220.5017,91.6318,268.4836,0.00013788,1.907e-05,0.0,0 STARLINK-3309,1 50158U 21125C   24086.55848281  .00001907  00000-0  13788-3 0  9998,2 50158  53.2178 220.5017 0001418  91.6318 268.4836 15.08829600125718,6917.912,95.438,540.758,538.796,0.0
50158.0,STARLINK-3309,PAYLOAD,2024-03-26 14:59:36,15.088285,0.0001253,53.2161,220.2043,86.9342,273.1793,0.00015524,2.183e-05,0.0,0 STARLINK-3309,1 50158U 21125C   24086.62472329  .00002183  00000-0  15524-3 0  9999,2 50158  53.2161 220.2043 0001253  86.9342 273.1793 15.08828500128870,6917.916,95.438,540.647,538.914,0.0
50158.0,STARLINK-3309,PAYLOAD,2024-03-26 16:34:58,15.08833948,0.0001348,53.2165,219.9066,86.3884,273.7262,0.00019332,2.79e-05,0.0,0 STARLINK-3309,1 50158U 21125C   24086.69096002  .00002790  00000-0  19332-3 0  9991,2 50158  53.2165 219.9066 0001348  86.3884 273.7262 15.08833948128884,6917.899,95.438,540.696,538.831,0.0
50158.0,STARLINK-3309,PAYLOAD,2024-03-27 14:50:23,15.08829073,0.0001363,53.2156,215.7435,94.5883,265.5265,0.00024836,3.666e-05,0.0,0 STARLINK-3309,1 50158U 21125C   24087.61832839  .00003666  00000-0  24836-3 0  9998,2 50158  53.2156 215.7435 0001363  94.5883 265.5265 15.08829073129028,6917.914,95.438,540.722,538.836,0.0
50158.0,STARLINK-3309,PAYLOAD,2024-03-28 01:58:04,15.08850437,0.0001343,53.2161,213.6608,90.4299,269.6847,0.00025814,3.824e-05,0.0,0 STARLINK-3309,1 50158U 21125C   24088.08199534  .00003824  00000-0  25814-3 0  9991,2 50158  53.2161 213.6608 0001343  90.4299 269.6847 15.08850437125943,6917.848,95.437,540.643,538.784,0.0
50158.0,STARLINK-3309,PAYLOAD,2024-03-28 11:30:23,15.08846795,0.0001754,53.2177,211.8764,92.7461,267.3732,4.0749e-05,3.61e-06,0.0,0 STARLINK-3309,1 50158U 21125C   24088.47944415  .00000361  00000-0  40749-4 0  9998,2 50158  53.2177 211.8764 0001754  92.7461 267.3732 15.08846795126003,6917.86,95.437,540.938,538.511,0.0
